SHENZHOU-22             
1 66645U 25272A   25340.88512792  .00027906  00000+0  35334-3 0  9995
2 66645  41.4683  52.2413 0009453 344.5349  15.5199 15.58811356263009
CZ-2F R/B               
1 66646U 25272B   25341.42049818  .09016961  79731-5  21216-3 0  9996
2 66646  41.4502  42.8201 0025537 230.1755 129.6865 16.43477868  1987
SOYUZ-MS 28             
1 66664U 25275A   25340.86543100  .00013750  00000+0  25394-3 0  9991
2 66664  51.6304 171.5636 0003497 213.1314 146.9456 15.49374779  1288
1998-067XS              
1 66906U 98067XS  25340.92797300  .00035216  00000+0  61900-3 0  9993
2 66906  51.6299 171.2315 0004146 177.6061 182.4948 15.50144102   711
1998-067XT              
1 66907U 98067XT  25340.92749179  .00071486  00000+0  12269-2 0  9997
2 66907  51.6299 171.2284 0005211 194.7186 165.3652 15.50498848   710
1998-067XU              
1 66908U 98067XU  25340.92735899  .00066891  00000+0  11470-2 0  9999
2 66908  51.6296 171.2272 0005403 194.2976 165.7861 15.50551079   712
SILVERSAT               
1 66909U 98067XV  25340.92732295  .00080732  00000+0  13781-2 0  9994
2 66909  51.6296 171.2269 0005270 195.2030 164.8802 15.50597561   714
1998-067XW              
1 66910U 98067XW  25340.92652091  .00070242  00000+0  11914-2 0  9992
2 66910  51.6295 171.2216 0006161 180.8315 179.2665 15.50834076   715
1998-067XX              
1 66911U 98067XX  25340.92641793  .00082787  00000+0  13962-2 0  9992
2 66911  51.6294 171.2209 0006077 181.4841 178.6131 15.50921454   701
1998-067XY              
1 66912U 98067XY  25340.79874919  .00066928  00000+0  11554-2 0  9990
2 66912  51.6299 171.8684 0005235 194.0341 166.0503 15.50363521   686
